[{"OBJECT_NAME":"SL-8 R/B","OBJECT_ID":"1979-089B","EPOCH":"2026-03-04T13:02:42.411552","MEAN_MOTION":14.423468,"ECCENTRICITY":0.00171266,"INCLINATION":74.0673,"RA_OF_ASC_NODE":100.571,"ARG_OF_PERICENTER":273.7451,"MEAN_ANOMALY":86.1747,"EPHEMERIS_TYPE":0,"CLASSIFICATION_TYPE":"U","NORAD_CAT_ID":11574,"ELEMENT_SET_NO":999,"REV_AT_EPOCH":43536,"BSTAR":0.00011694941,"MEAN_MOTION_DOT":3.6e-6,"MEAN_MOTION_DDOT":0},{"OBJECT_NAME":"SL-14 R/B","OBJECT_ID":"1980-005B","EPOCH":"2026-03-04T03:46:20.833248","MEAN_MOTION":14.90922933,"ECCENTRICITY":0.00156948,"INCLINATION":82.5155,"RA_OF_ASC_NODE":312.4838,"ARG_OF_PERICENTER":176.3105,"MEAN_ANOMALY":183.8233,"EPHEMERIS_TYPE":0,"CLASSIFICATION_TYPE":"U","NORAD_CAT_ID":11672,"ELEMENT_SET_NO":999,"REV_AT_EPOCH":47566,"BSTAR":7.7036609e-5,"MEAN_MOTION_DOT":7.87e-6,"MEAN_MOTION_DDOT":0},{"OBJECT_NAME":"SL-8 R/B","OBJECT_ID":"1981-003B","EPOCH":"2026-03-04T13:40:24.439584","MEAN_MOTION":15.10736035,"ECCENTRICITY":0.02626875,"INCLINATION":82.9388,"RA_OF_ASC_NODE":294.7589,"ARG_OF_PERICENTER":196.4181,"MEAN_ANOMALY":162.8428,"EPHEMERIS_TYPE":0,"CLASSIFICATION_TYPE":"U","NORAD_CAT_ID":12139,"ELEMENT_SET_NO":999,"REV_AT_EPOCH":31390,"BSTAR":0.00057654757,"MEAN_MOTION_DOT":0.00022352,"MEAN_MOTION_DDOT":0},{"OBJECT_NAME":"SL-3 R/B","OBJECT_ID":"1981-046B","EPOCH":"2026-03-04T14:13:44.128704","MEAN_MOTION":15.41838384,"ECCENTRICITY":0.00199886,"INCLINATION":81.2306,"RA_OF_ASC_NODE":295.8648,"ARG_OF_PERICENTER":39.5957,"MEAN_ANOMALY":320.6741,"EPHEMERIS_TYPE":0,"CLASSIFICATION_TYPE":"U","NORAD_CAT_ID":12465,"ELEMENT_SET_NO":999,"REV_AT_EPOCH":43764,"BSTAR":0.00039234827,"MEAN_MOTION_DOT":0.00016794,"MEAN_MOTION_DDOT":0},{"OBJECT_NAME":"SL-3 R/B","OBJECT_ID":"1981-103B","EPOCH":"2026-03-04T13:49:53.289408","MEAN_MOTION":15.21300279,"ECCENTRICITY":0.00124645,"INCLINATION":81.1575,"RA_OF_ASC_NODE":219.4299,"ARG_OF_PERICENTER":305.2367,"MEAN_ANOMALY":54.7697,"EPHEMERIS_TYPE":0,"CLASSIFICATION_TYPE":"U","NORAD_CAT_ID":12904,"ELEMENT_SET_NO":999,"REV_AT_EPOCH":97245,"BSTAR":0.00038624635,"MEAN_MOTION_DOT":8.682e-5,"MEAN_MOTION_DDOT":0},{"OBJECT_NAME":"SL-3 R/B","OBJECT_ID":"1982-013B","EPOCH":"2026-03-04T14:04:36.215328","MEAN_MOTION":15.21952942,"ECCENTRICITY":0.00223459,"INCLINATION":81.1769,"RA_OF_ASC_NODE":166.7502,"ARG_OF_PERICENTER":194.6416,"MEAN_ANOMALY":165.4172,"EPHEMERIS_TYPE":0,"CLASSIFICATION_TYPE":"U","NORAD_CAT_ID":13068,"ELEMENT_SET_NO":999,"REV_AT_EPOCH":40357,"BSTAR":0.00028897472,"MEAN_MOTION_DOT":6.658e-5,"MEAN_MOTION_DDOT":0},{"OBJECT_NAME":"SL-3 R/B","OBJECT_ID":"1982-039B","EPOCH":"2026-03-04T13:18:37.121184","MEAN_MOTION":15.10044737,"ECCENTRICITY":0.00298507,"INCLINATION":81.1581,"RA_OF_ASC_NODE":221.882,"ARG_OF_PERICENTER":341.2034,"MEAN_ANOMALY":18.8086,"EPHEMERIS_TYPE":0,"CLASSIFICATION_TYPE":"U","NORAD_CAT_ID":13154,"ELEMENT_SET_NO":999,"REV_AT_EPOCH":38086,"BSTAR":0.00023371651,"MEAN_MOTION_DOT":3.863e-5,"MEAN_MOTION_DDOT":0},{"OBJECT_NAME":"SL-3 R/B","OBJECT_ID":"1982-079B","EPOCH":"2026-03-04T13:09:18.292896","MEAN_MOTION":15.24705928,"ECCENTRICITY":0.00248499,"INCLINATION":81.1476,"RA_OF_ASC_NODE":199.1467,"ARG_OF_PERICENTER":182.0576,"MEAN_ANOMALY":178.056,"EPHEMERIS_TYPE":0,"CLASSIFICATION_TYPE":"U","NORAD_CAT_ID":13403,"ELEMENT_SET_NO":999,"REV_AT_EPOCH":37691,"BSTAR":0.0003790851,"MEAN_MOTION_DOT":9.486e-5,"MEAN_MOTION_DDOT":0},{"OBJECT_NAME":"SL-14 R/B","OBJECT_ID":"1982-092B","EPOCH":"2026-03-04T07:51:51.202080","MEAN_MOTION":14.86660511,"ECCENTRICITY":0.00193347,"INCLINATION":82.5703,"RA_OF_ASC_NODE":146.4141,"ARG_OF_PERICENTER":322.4519,"MEAN_ANOMALY":105.903,"EPHEMERIS_TYPE":0,"CLASSIFICATION_TYPE":"U","NORAD_CAT_ID":13553,"ELEMENT_SET_NO":999,"REV_AT_EPOCH":32813,"BSTAR":7.7682802e-5,"MEAN_MOTION_DOT":7.16e-6,"MEAN_MOTION_DDOT":0},{"OBJECT_NAME":"SL-3 R/B","OBJECT_ID":"1983-010B","EPOCH":"2026-03-04T07:48:04.419360","MEAN_MOTION":15.46126696,"ECCENTRICITY":0.00183876,"INCLINATION":81.1063,"RA_OF_ASC_NODE":8.8216,"ARG_OF_PERICENTER":68.0841,"MEAN_ANOMALY":292.2356,"EPHEMERIS_TYPE":0,"CLASSIFICATION_TYPE":"U","NORAD_CAT_ID":13819,"ELEMENT_SET_NO":999,"REV_AT_EPOCH":35711,"BSTAR":0.0005368276,"MEAN_MOTION_DOT":0.00026546,"MEAN_MOTION_DDOT":0},{"OBJECT_NAME":"SL-3 R/B","OBJECT_ID":"1983-075B","EPOCH":"2026-03-04T13:09:40.038912","MEAN_MOTION":15.38268807,"ECCENTRICITY":0.00197649,"INCLINATION":97.6135,"RA_OF_ASC_NODE":67.931,"ARG_OF_PERICENTER":246.0015,"MEAN_ANOMALY":113.916,"EPHEMERIS_TYPE":0,"CLASSIFICATION_TYPE":"U","NORAD_CAT_ID":14208,"ELEMENT_SET_NO":999,"REV_AT_EPOCH":32936,"BSTAR":0.00042612571,"MEAN_MOTION_DOT":0.000161,"MEAN_MOTION_DDOT":0},{"OBJECT_NAME":"COSMOS 1536","OBJECT_ID":"1984-013A","EPOCH":"2026-03-04T04:53:27.893184","MEAN_MOTION":15.23742162,"ECCENTRICITY":0.00127786,"INCLINATION":82.5437,"RA_OF_ASC_NODE":113.304,"ARG_OF_PERICENTER":304.9036,"MEAN_ANOMALY":55.1,"EPHEMERIS_TYPE":0,"CLASSIFICATION_TYPE":"U","NORAD_CAT_ID":14699,"ELEMENT_SET_NO":999,"REV_AT_EPOCH":27178,"BSTAR":0.00039378718,"MEAN_MOTION_DOT":9.517e-5,"MEAN_MOTION_DDOT":0},{"OBJECT_NAME":"SL-14 R/B","OBJECT_ID":"1984-027B","EPOCH":"2026-03-04T12:11:44.804544","MEAN_MOTION":14.8597048,"ECCENTRICITY":0.00178087,"INCLINATION":82.5381,"RA_OF_ASC_NODE":249.8737,"ARG_OF_PERICENTER":355.5835,"MEAN_ANOMALY":4.5221,"EPHEMERIS_TYPE":0,"CLASSIFICATION_TYPE":"U","NORAD_CAT_ID":14820,"ELEMENT_SET_NO":999,"REV_AT_EPOCH":24686,"BSTAR":7.9469162e-5,"MEAN_MOTION_DOT":7.2e-6,"MEAN_MOTION_DDOT":0},{"OBJECT_NAME":"SL-8 R/B","OBJECT_ID":"1985-006B","EPOCH":"2026-03-04T13:44:44.742048","MEAN_MOTION":14.37778746,"ECCENTRICITY":0.00186571,"INCLINATION":74.0433,"RA_OF_ASC_NODE":270.565,"ARG_OF_PERICENTER":189.5392,"MEAN_ANOMALY":200.9949,"EPHEMERIS_TYPE":0,"CLASSIFICATION_TYPE":"U","NORAD_CAT_ID":15483,"ELEMENT_SET_NO":999,"REV_AT_EPOCH":15329,"BSTAR":7.7487308e-5,"MEAN_MOTION_DOT":2.07e-6,"MEAN_MOTION_DDOT":0},{"OBJECT_NAME":"SL-12 R/B(2)","OBJECT_ID":"1985-042D","EPOCH":"2026-03-04T11:55:51.592224","MEAN_MOTION":14.21980911,"ECCENTRICITY":0.00334751,"INCLINATION":71.1064,"RA_OF_ASC_NODE":98.7002,"ARG_OF_PERICENTER":136.6514,"MEAN_ANOMALY":328.1502,"EPHEMERIS_TYPE":0,"CLASSIFICATION_TYPE":"U","NORAD_CAT_ID":15772,"ELEMENT_SET_NO":999,"REV_AT_EPOCH":11365,"BSTAR":9.8859868e-5,"MEAN_MOTION_DOT":1.72e-6,"MEAN_MOTION_DDOT":0},{"OBJECT_NAME":"SL-14 R/B","OBJECT_ID":"1985-069B","EPOCH":"2026-03-04T08:38:13.176672","MEAN_MOTION":14.86426087,"ECCENTRICITY":0.0018004,"INCLINATION":82.5274,"RA_OF_ASC_NODE":29.9442,"ARG_OF_PERICENTER":205.8051,"MEAN_ANOMALY":154.227,"EPHEMERIS_TYPE":0,"CLASSIFICATION_TYPE":"U","NORAD_CAT_ID":15945,"ELEMENT_SET_NO":999,"REV_AT_EPOCH":17204,"BSTAR":8.8147227e-5,"MEAN_MOTION_DOT":8.04e-6,"MEAN_MOTION_DDOT":0},{"OBJECT_NAME":"SL-16 R/B","OBJECT_ID":"1985-097B","EPOCH":"2026-03-04T11:35:03.197760","MEAN_MOTION":14.16599758,"ECCENTRICITY":0.00099724,"INCLINATION":71.0036,"RA_OF_ASC_NODE":151.5159,"ARG_OF_PERICENTER":265.965,"MEAN_ANOMALY":174.8235,"EPHEMERIS_TYPE":0,"CLASSIFICATION_TYPE":"U","NORAD_CAT_ID":16182,"ELEMENT_SET_NO":999,"REV_AT_EPOCH":8649,"BSTAR":3.504613e-6,"MEAN_MOTION_DOT":-4.1e-7,"MEAN_MOTION_DDOT":0}]
