SL-8 R/B                
1 11574U 79089B   26063.54354643  .00000360  00000+0  11695-3 0  9995
2 11574  74.0673 100.5710 0017126 273.7451  86.1747 14.42346800435363
SL-14 R/B               
1 11672U 80005B   26063.15718557  .00000787  00000+0  77037-4 0  9995
2 11672  82.5155 312.4838 0015694 176.3105 183.8233 14.90922933475660
SL-8 R/B                
1 12139U 81003B   26063.56972731  .00022352  00000+0  57655-3 0  9999
2 12139  82.9388 294.7589 0262687 196.4181 162.8428 15.10736035313909
SL-3 R/B                
1 12465U 81046B   26063.59287186  .00016794  00000+0  39235-3 0  9991
2 12465  81.2306 295.8648 0019988  39.5957 320.6741 15.41838384437647
SL-3 R/B                
1 12904U 81103B   26063.57631122  .00008682  00000+0  38625-3 0  9993
2 12904  81.1575 219.4299 0012464 305.2367  54.7697 15.21300279972459
SL-3 R/B                
1 13068U 82013B   26063.58653027  .00006658  00000+0  28897-3 0  9996
2 13068  81.1769 166.7502 0022345 194.6416 165.4172 15.21952942403571
SL-3 R/B                
1 13154U 82039B   26063.55459631  .00003863  00000+0  23372-3 0  9990
2 13154  81.1581 221.8820 0029850 341.2034  18.8086 15.10044737380862
SL-3 R/B                
1 13403U 82079B   26063.54812839  .00009486  00000+0  37909-3 0  9991
2 13403  81.1476 199.1467 0024849 182.0576 178.0560 15.24705928376919
SL-14 R/B               
1 13553U 82092B   26063.32767595  .00000716  00000+0  77683-4 0  9997
2 13553  82.5703 146.4141 0019334 322.4519 105.9030 14.86660511328134
SL-3 R/B                
1 13819U 83010B   26063.32505115  .00026546  00000+0  53683-3 0  9993
2 13819  81.1063   8.8216 0018387  68.0841 292.2356 15.46126696357114
SL-3 R/B                
1 14208U 83075B   26063.54838008  .00016100  00000+0  42613-3 0  9997
2 14208  97.6135  67.9310 0019764 246.0015 113.9160 15.38268807329361
COSMOS 1536             
1 14699U 84013A   26063.20379506  .00009517  00000+0  39379-3 0  9999
2 14699  82.5437 113.3040 0012778 304.9036  55.1000 15.23742162271781
SL-14 R/B               
1 14820U 84027B   26063.50815746  .00000720  00000+0  79469-4 0  9996
2 14820  82.5381 249.8737 0017808 355.5835   4.5221 14.85970480246868
SL-8 R/B                
1 15483U 85006B   26063.57274007  .00000207  00000+0  77487-4 0  9994
2 15483  74.0433 270.5650 0018657 189.5392 200.9949 14.37778746153290
SL-12 R/B(2)            
1 15772U 85042D   26063.49712491  .00000172  00000+0  98860-4 0  9999
2 15772  71.1064  98.7002 0033475 136.6514 328.1502 14.21980911113650
SL-14 R/B               
1 15945U 85069B   26063.35987473  .00000804  00000+0  88147-4 0  9998
2 15945  82.5274  29.9442 0018004 205.8051 154.2270 14.86426087172049
SL-16 R/B               
1 16182U 85097B   26063.48267590 -.00000041  00000+0  35046-5 0  9993
2 16182  71.0036 151.5159 0009972 265.9650 174.8235 14.16599758 86496
